start=new Date('2021-10-15T00:00:00.000Z').valueOf();
sats=[{"MEAN_ANOMALY":"291.3133","OBJECT_NAME":"STARLINK-2386","TIME_SYSTEM":"UTC","SEMIMAJOR_AXIS":"6925.398","COUNTRY_CODE":"US","LAUNCH_DATE":"2021-03-11","NORAD_CAT_ID":"47805","ARG_OF_PERICENTER":"68.8010","DECAY_DATE":null,"CLASSIFICATION_TYPE":"U","REF_FRAME":"TEME","SITE":"AFETR","FILE":"3163138","BSTAR":"-0.00017457000000","MEAN_ELEMENT_THEORY":"SGP4","CENTER_NAME":"EARTH","OBJECT_TYPE":"PAYLOAD","PERIAPSIS":"546.265","REV_AT_EPOCH":"3465","MEAN_MOTION_DOT":"-0.00002880","TLE_LINE1":"1 47805U 21018U   21287.60267996 -.00002880  00000-0 -17457-3 0  9998","RCS_SIZE":"MEDIUM","ECCENTRICITY":"0.00014400","APOAPSIS":"548.260","EPOCH":"2021-10-14T14:27:51.548544","EPHEMERIS_TYPE":"0","OBJECT_ID":"2021-018U","MEAN_MOTION":"15.06383983","GP_ID":"187190036","PERIOD":"95.593","INCLINATION":"53.0540","TLE_LINE2":"2 47805  53.0540 246.0977 0001440  68.8010 291.3133 15.06383983 34656","RA_OF_ASC_NODE":"246.0977","MEAN_MOTION_DDOT":"0.0000000000000","ELEMENT_SET_NO":"999"},{"RA_OF_ASC_NODE":"260.9961","TLE_LINE2":"2 47806  53.0557 260.9961 0001541  69.1799 290.9355 15.06397996 34507","PERIOD":"95.592","INCLINATION":"53.0557","ELEMENT_SET_NO":"999","MEAN_MOTION_DDOT":"0.0000000000000","TLE_LINE1":"1 47806U 21018V   21287.62894047 -.00001277  00000-0 -66832-4 0  9995","RCS_SIZE":"LARGE","ECCENTRICITY":"0.00015410","EPHEMERIS_TYPE":"0","GP_ID":"187189285","MEAN_MOTION":"15.06397996","OBJECT_ID":"2021-018V","APOAPSIS":"548.287","EPOCH":"2021-10-14T15:05:40.456608","OBJECT_TYPE":"PAYLOAD","REV_AT_EPOCH":"3450","MEAN_MOTION_DOT":"-0.00001277","PERIAPSIS":"546.153","TIME_SYSTEM":"UTC","MEAN_ANOMALY":"290.9355","OBJECT_NAME":"STARLINK-2387","REF_FRAME":"TEME","CLASSIFICATION_TYPE":"U","CENTER_NAME":"EARTH","MEAN_ELEMENT_THEORY":"SGP4","BSTAR":"-0.00006683200000","FILE":"3163138","SITE":"AFETR","SEMIMAJOR_AXIS":"6925.355","ARG_OF_PERICENTER":"69.1799","DECAY_DATE":null,"COUNTRY_CODE":"US","LAUNCH_DATE":"2021-03-11","NORAD_CAT_ID":"47806"},{"EPOCH":"2021-10-14T03:42:58.934592","APOAPSIS":"548.280","OBJECT_ID":"2021-018W","GP_ID":"187138675","MEAN_MOTION":"15.06396398","EPHEMERIS_TYPE":"0","ECCENTRICITY":"0.00015240","RCS_SIZE":"LARGE","TLE_LINE1":"1 47807U 21018W   21287.15484878  .00000140  00000-0  28298-4 0  9991","MEAN_MOTION_DDOT":"0.0000000000000","ELEMENT_SET_NO":"999","PERIOD":"95.592","INCLINATION":"53.0459","TLE_LINE2":"2 47807  53.0459 238.1535 0001524  62.9514 297.1631 15.06396398 34714","RA_OF_ASC_NODE":"238.1535","LAUNCH_DATE":"2021-03-11","NORAD_CAT_ID":"47807","COUNTRY_CODE":"US","ARG_OF_PERICENTER":"62.9514","DECAY_DATE":null,"SEMIMAJOR_AXIS":"6925.360","FILE":"3161855","BSTAR":"0.00002829800000","SITE":"AFETR","MEAN_ELEMENT_THEORY":"SGP4","CENTER_NAME":"EARTH","CLASSIFICATION_TYPE":"U","REF_FRAME":"TEME","OBJECT_NAME":"STARLINK-2388","MEAN_ANOMALY":"297.1631","TIME_SYSTEM":"UTC","PERIAPSIS":"546.169","MEAN_MOTION_DOT":"0.00000140","REV_AT_EPOCH":"3471","OBJECT_TYPE":"PAYLOAD"},{"INCLINATION":"53.0549","PERIOD":"95.593","RA_OF_ASC_NODE":"260.9077","TLE_LINE2":"2 47808  53.0549 260.9077 0001513  77.4903 282.6255 15.06383590 34508","MEAN_MOTION_DDOT":"0.0000000000000","ELEMENT_SET_NO":"999","ECCENTRICITY":"0.00015130","TLE_LINE1":"1 47808U 21018X   21287.64738273 -.00001972  00000-0 -11356-3 0  9999","RCS_SIZE":"LARGE","EPOCH":"2021-10-14T15:32:13.867872","APOAPSIS":"548.312","OBJECT_ID":"2021-018X","MEAN_MOTION":"15.06383590","GP_ID":"187189786","EPHEMERIS_TYPE":"0","OBJECT_TYPE":"PAYLOAD","PERIAPSIS":"546.216","MEAN_MOTION_DOT":"-0.00001972","REV_AT_EPOCH":"3450","OBJECT_NAME":"STARLINK-2389","MEAN_ANOMALY":"282.6255","TIME_SYSTEM":"UTC","NORAD_CAT_ID":"47808","LAUNCH_DATE":"2021-03-11","COUNTRY_CODE":"US","DECAY_DATE":null,"ARG_OF_PERICENTER":"77.4903","SEMIMAJOR_AXIS":"6925.399","FILE":"3163138","BSTAR":"-0.00011356000000","SITE":"AFETR","MEAN_ELEMENT_THEORY":"SGP4","CENTER_NAME":"EARTH","REF_FRAME":"TEME","CLASSIFICATION_TYPE":"U"},{"NORAD_CAT_ID":"47809","LAUNCH_DATE":"2021-03-11","COUNTRY_CODE":"US","DECAY_DATE":null,"ARG_OF_PERICENTER":"65.9801","SEMIMAJOR_AXIS":"6925.389","FILE":"3163138","BSTAR":"-0.00010664000000","SITE":"AFETR","MEAN_ELEMENT_THEORY":"SGP4","CENTER_NAME":"EARTH","CLASSIFICATION_TYPE":"U","REF_FRAME":"TEME","OBJECT_NAME":"STARLINK-2390","MEAN_ANOMALY":"294.1352","TIME_SYSTEM":"UTC","PERIAPSIS":"546.163","MEAN_MOTION_DOT":"-0.00001869","REV_AT_EPOCH":"3443","OBJECT_TYPE":"PAYLOAD","EPOCH":"2021-10-14T15:40:52.667040","APOAPSIS":"548.344","OBJECT_ID":"2021-018Y","MEAN_MOTION":"15.06386909","GP_ID":"187190537","EPHEMERIS_TYPE":"0","ECCENTRICITY":"0.00015750","TLE_LINE1":"1 47809U 21018Y   21287.65338735 -.00001869  00000-0 -10664-3 0  9996","RCS_SIZE":"LARGE","MEAN_MOTION_DDOT":"0.0000000000000","ELEMENT_SET_NO":"999","INCLINATION":"53.0537","PERIOD":"95.593","TLE_LINE2":"2 47809  53.0537 265.8718 0001575  65.9801 294.1352 15.06386909 34434","RA_OF_ASC_NODE":"265.8718"},{"EPHEMERIS_TYPE":"0","MEAN_MOTION":"15.06380486","GP_ID":"187188785","OBJECT_ID":"2021-018Z","APOAPSIS":"548.475","EPOCH":"2021-10-14T16:16:42.624768","TLE_LINE1":"1 47810U 21018Z   21287.67827112 -.00000287  00000-0 -35649-6 0  9998","RCS_SIZE":"LARGE","ECCENTRICITY":"0.00017350","ELEMENT_SET_NO":"999","MEAN_MOTION_DDOT":"0.0000000000000","TLE_LINE2":"2 47810  53.0544 275.7810 0001735  71.1114 289.0063 15.06380486 34291","RA_OF_ASC_NODE":"275.7810","INCLINATION":"53.0544","PERIOD":"95.593","CLASSIFICATION_TYPE":"U","REF_FRAME":"TEME","MEAN_ELEMENT_THEORY":"SGP4","CENTER_NAME":"EARTH","FILE":"3163138","BSTAR":"-0.00000035649000","SITE":"AFETR","SEMIMAJOR_AXIS":"6925.408","DECAY_DATE":null,"ARG_OF_PERICENTER":"71.1114","COUNTRY_CODE":"US","LAUNCH_DATE":"2021-03-11","NORAD_CAT_ID":"47810","TIME_SYSTEM":"UTC","MEAN_ANOMALY":"289.0063","OBJECT_NAME":"STARLINK-2391","REV_AT_EPOCH":"3429","MEAN_MOTION_DOT":"-0.00000287","PERIAPSIS":"546.072","OBJECT_TYPE":"PAYLOAD"},{"OBJECT_NAME":"STARLINK-2392","MEAN_ANOMALY":"284.9958","TIME_SYSTEM":"UTC","ARG_OF_PERICENTER":"75.1197","DECAY_DATE":null,"COUNTRY_CODE":"US","LAUNCH_DATE":"2021-03-11","NORAD_CAT_ID":"47811","SEMIMAJOR_AXIS":"6925.384","MEAN_ELEMENT_THEORY":"SGP4","CENTER_NAME":"EARTH","BSTAR":"-0.00016582000000","FILE":"3162213","SITE":"AFETR","CLASSIFICATION_TYPE":"U","REF_FRAME":"TEME","OBJECT_TYPE":"PAYLOAD","PERIAPSIS":"546.210","MEAN_MOTION_DOT":"-0.00002750","REV_AT_EPOCH":"3430","ECCENTRICITY":"0.00015010","TLE_LINE1":"1 47811U 21018AA  21287.58519969 -.00002750  00000-0 -16582-3 0  9996","RCS_SIZE":"LARGE","EPOCH":"2021-10-14T14:02:41.253216","APOAPSIS":"548.289","GP_ID":"187147953","MEAN_MOTION":"15.06388316","OBJECT_ID":"2021-018AA","EPHEMERIS_TYPE":"0","PERIOD":"95.593","INCLINATION":"53.0558","RA_OF_ASC_NODE":"246.1795","TLE_LINE2":"2 47811  53.0558 246.1795 0001501  75.1197 284.9958 15.06388316 34306","ELEMENT_SET_NO":"999","MEAN_MOTION_DDOT":"0.0000000000000"},{"PERIAPSIS":"546.096","MEAN_MOTION_DOT":"-0.00000652","REV_AT_EPOCH":"3423","OBJECT_TYPE":"PAYLOAD","ARG_OF_PERICENTER":"66.6210","DECAY_DATE":null,"LAUNCH_DATE":"2021-03-11","NORAD_CAT_ID":"47812","COUNTRY_CODE":"US","SEMIMAJOR_AXIS":"6925.372","MEAN_ELEMENT_THEORY":"SGP4","CENTER_NAME":"EARTH","SITE":"AFETR","FILE":"3163138","BSTAR":"-0.00002485200000","CLASSIFICATION_TYPE":"U","REF_FRAME":"TEME","OBJECT_NAME":"STARLINK-2393","MEAN_ANOMALY":"293.4952","TIME_SYSTEM":"UTC","ELEMENT_SET_NO":"999","MEAN_MOTION_DDOT":"0.0000000000000","PERIOD":"95.593","INCLINATION":"53.0543","TLE_LINE2":"2 47812  53.0543 275.7103 0001647  66.6210 293.4952 15.06392357 34235","RA_OF_ASC_NODE":"275.7103","EPOCH":"2021-10-14T16:32:37.514976","APOAPSIS":"548.378","MEAN_MOTION":"15.06392357","GP_ID":"187190287","OBJECT_ID":"2021-018AB","EPHEMERIS_TYPE":"0","ECCENTRICITY":"0.00016470","TLE_LINE1":"1 47812U 21018AB  21287.68932309 -.00000652  00000-0 -24852-4 0  9994","RCS_SIZE":"LARGE"},{"SEMIMAJOR_AXIS":"6925.371","ARG_OF_PERICENTER":"63.5502","DECAY_DATE":null,"LAUNCH_DATE":"2021-03-11","NORAD_CAT_ID":"47813","COUNTRY_CODE":"US","CLASSIFICATION_TYPE":"U","REF_FRAME":"TEME","MEAN_ELEMENT_THEORY":"SGP4","CENTER_NAME":"EARTH","SITE":"AFETR","FILE":"3163138","BSTAR":"-0.00006915900000","MEAN_ANOMALY":"296.5646","OBJECT_NAME":"STARLINK-2394","TIME_SYSTEM":"UTC","PERIAPSIS":"546.160","REV_AT_EPOCH":"3470","MEAN_MOTION_DOT":"-0.00001311","OBJECT_TYPE":"PAYLOAD","APOAPSIS":"548.312","EPOCH":"2021-10-14T14:34:31.774944","EPHEMERIS_TYPE":"0","GP_ID":"187190037","MEAN_MOTION":"15.06392611","OBJECT_ID":"2021-018AC","TLE_LINE1":"1 47813U 21018AC  21287.60731221 -.00001311  00000-0 -69159-4 0  9999","RCS_SIZE":"LARGE","ECCENTRICITY":"0.00015540","ELEMENT_SET_NO":"999","MEAN_MOTION_DDOT":"0.0000000000000","PERIOD":"95.593","INCLINATION":"53.0564","TLE_LINE2":"2 47813  53.0564 246.0879 0001554  63.5502 296.5646 15.06392611 34706","RA_OF_ASC_NODE":"246.0879"},{"REV_AT_EPOCH":"3400","MEAN_MOTION_DOT":"-0.00001977","PERIAPSIS":"546.163","OBJECT_TYPE":"PAYLOAD","CLASSIFICATION_TYPE":"U","REF_FRAME":"TEME","BSTAR":"-0.00011390000000","FILE":"3162038","SITE":"AFETR","MEAN_ELEMENT_THEORY":"SGP4","CENTER_NAME":"EARTH","SEMIMAJOR_AXIS":"6925.372","NORAD_CAT_ID":"47814","LAUNCH_DATE":"2021-03-11","COUNTRY_CODE":"US","DECAY_DATE":null,"ARG_OF_PERICENTER":"73.5277","TIME_SYSTEM":"UTC","MEAN_ANOMALY":"286.5883","OBJECT_NAME":"STARLINK-2395","MEAN_MOTION_DDOT":"0.0000000000000","ELEMENT_SET_NO":"999","TLE_LINE2":"2 47814  53.0548 267.1782 0001551  73.5277 286.5883 15.06392404 34008","RA_OF_ASC_NODE":"267.1782","PERIOD":"95.593","INCLINATION":"53.0548","EPHEMERIS_TYPE":"0","OBJECT_ID":"2021-018AD","MEAN_MOTION":"15.06392404","GP_ID":"187144038","APOAPSIS":"548.311","EPOCH":"2021-10-14T08:46:52.592736","TLE_LINE1":"1 47814U 21018AD  21287.36588649 -.00001977  00000-0 -11390-3 0  9998","RCS_SIZE":"MEDIUM","ECCENTRICITY":"0.00015510"}];
